{
"type": "FeatureCollection",
"name": "haltes_de_lijn",
"crs": { "type": "name", "properties": { "name": "urn:ogc:def:crs:EPSG::31370" } },
"features": [
{ "type": "Feature", "properties": { "UIDN": 204901.0, "OIDN": 243.0, "STOPID": 101680.0, "NAAMHALTE": "Deurne Clara Snellings", "TYPEHALTE": 1, "LBLTYPEHAL": "Niet-belbus", "CODEGEM": "11002", "NAAMGEM": "Antwerpen", "OBJECTID": 6, "districtcode": 6, "districtnaam": "DEURNE", "afkorting": "DE", "SHAPE_Length": 22536.537533671883, "SHAPE_Area": 13028861.702838693 }, "geometry": { "type": "MultiPoint", "coordinates": [ [ 156700.999600000010105, 213030.9998 ] ] } },
{ "type": "Feature", "properties": { "UIDN": 205370.0, "OIDN": 42019.0, "STOPID": 103131.0, "NAAMHALTE": "Deurne Florent Pauwels", "TYPEHALTE": 1, "LBLTYPEHAL": "Niet-belbus", "CODEGEM": "11002", "NAAMGEM": "Antwerpen", "OBJECTID": 6, "districtcode": 6, "districtnaam": "DEURNE", "afkorting": "DE", "SHAPE_Length": 22536.537533671883, "SHAPE_Area": 13028861.702838693 }, "geometry": { "type": "MultiPoint", "coordinates": [ [ 157155.999600000010105, 210692.9998 ] ] } },
{ "type": "Feature", "properties": { "UIDN": 207456.0, "OIDN": 9181.0, "STOPID": 107735.0, "NAAMHALTE": "Deurne Havik", "TYPEHALTE": 1, "LBLTYPEHAL": "Niet-belbus", "CODEGEM": "11002", "NAAMGEM": "Antwerpen", "OBJECTID": 6, "districtcode": 6, "districtnaam": "DEURNE", "afkorting": "DE", "SHAPE_Length": 22536.537533671883, "SHAPE_Area": 13028861.702838693 }, "geometry": { "type": "MultiPoint", "coordinates": [ [ 158392.9998, 212367.999600000010105 ] ] } },
{ "type": "Feature", "properties": { "UIDN": 207521.0, "OIDN": 14143.0, "STOPID": 108640.0, "NAAMHALTE": "Deurne Schotensesteenweg", "TYPEHALTE": 1, "LBLTYPEHAL": "Niet-belbus", "CODEGEM": "11002", "NAAMGEM": "Antwerpen", "OBJECTID": 6, "districtcode": 6, "districtnaam": "DEURNE", "afkorting": "DE", "SHAPE_Length": 22536.537533671883, "SHAPE_Area": 13028861.702838693 }, "geometry": { "type": "MultiPoint", "coordinates": [ [ 157480.999600000010105, 212116.9998 ] ] } },
{ "type": "Feature", "properties": { "UIDN": 210034.0, "OIDN": 37.0, "STOPID": 101050.0, "NAAMHALTE": "Deurne A. Van De Wielelei", "TYPEHALTE": 2, "LBLTYPEHAL": "Belbus en niet-belbus", "CODEGEM": "11002", "NAAMGEM": "Antwerpen", "OBJECTID": 6, "districtcode": 6, "districtnaam": "DEURNE", "afkorting": "DE", "SHAPE_Length": 22536.537533671883, "SHAPE_Area": 13028861.702838693 }, "geometry": { "type": "MultiPoint", "coordinates": [ [ 157885.0, 212035.0 ] ] } },
{ "type": "Feature", "properties": { "UIDN": 210036.0, "OIDN": 40.0, "STOPID": 101055.0, "NAAMHALTE": "Deurne A. Van De Wielelei", "TYPEHALTE": 2, "LBLTYPEHAL": "Belbus en niet-belbus", "CODEGEM": "11002", "NAAMGEM": "Antwerpen", "OBJECTID": 6, "districtcode": 6, "districtnaam": "DEURNE", "afkorting": "DE", "SHAPE_Length": 22536.537533671883, "SHAPE_Area": 13028861.702838693 }, "geometry": { "type": "MultiPoint", "coordinates": [ [ 157857.0, 212050.0 ] ] } },
{ "type": "Feature", "properties": { "UIDN": 210064.0, "OIDN": 12354.0, "STOPID": 101150.0, "NAAMHALTE": "Deurne Antwerp stadion", "TYPEHALTE": 2, "LBLTYPEHAL": "Belbus en niet-belbus", "CODEGEM": "11002", "NAAMGEM": "Antwerpen", "OBJECTID": 6, "districtcode": 6, "districtnaam": "DEURNE", "afkorting": "DE", "SHAPE_Length": 22536.537533671883, "SHAPE_Area": 13028861.702838693 }, "geometry": { "type": "MultiPoint", "coordinates": [ [ 157054.0, 213161.0 ] ] } },
{ "type": "Feature", "properties": { "UIDN": 210069.0, "OIDN": 12373.0, "STOPID": 101175.0, "NAAMHALTE": "Deurne Atheneum", "TYPEHALTE": 2, "LBLTYPEHAL": "Belbus en niet-belbus", "CODEGEM": "11002", "NAAMGEM": "Antwerpen", "OBJECTID": 6, "districtcode": 6, "districtnaam": "DEURNE", "afkorting": "DE", "SHAPE_Length": 22536.537533671883, "SHAPE_Area": 13028861.702838693 }, "geometry": { "type": "MultiPoint", "coordinates": [ [ 156337.0, 212489.0 ] ] } },
{ "type": "Feature", "properties": { "UIDN": 210074.0, "OIDN": 8158.0, "STOPID": 101210.0, "NAAMHALTE": "Deurne Baron Leroystraat", "TYPEHALTE": 2, "LBLTYPEHAL": "Belbus en niet-belbus", "CODEGEM": "11002", "NAAMGEM": "Antwerpen", "OBJECTID": 6, "districtcode": 6, "districtnaam": "DEURNE", "afkorting": "DE", "SHAPE_Length": 22536.537533671883, "SHAPE_Area": 13028861.702838693 }, "geometry": { "type": "MultiPoint", "coordinates": [ [ 157244.0, 212940.0 ] ] } },
{ "type": "Feature", "properties": { "UIDN": 210075.0, "OIDN": 8160.0, "STOPID": 101215.0, "NAAMHALTE": "Deurne Baron Leroystraat", "TYPEHALTE": 2, "LBLTYPEHAL": "Belbus en niet-belbus", "CODEGEM": "11002", "NAAMGEM": "Antwerpen", "OBJECTID": 6, "districtcode": 6, "districtnaam": "DEURNE", "afkorting": "DE", "SHAPE_Length": 22536.537533671883, "SHAPE_Area": 13028861.702838693 }, "geometry": { "type": "MultiPoint", "coordinates": [ [ 157253.0, 212908.0 ] ] } },
{ "type": "Feature", "properties": { "UIDN": 210129.0, "OIDN": 120.0, "STOPID": 101430.0, "NAAMHALTE": "Deurne Menegemlei", "TYPEHALTE": 2, "LBLTYPEHAL": "Belbus en niet-belbus", "CODEGEM": "11002", "NAAMGEM": "Antwerpen", "OBJECTID": 6, "districtcode": 6, "districtnaam": "DEURNE", "afkorting": "DE", "SHAPE_Length": 22536.537533671883, "SHAPE_Area": 13028861.702838693 }, "geometry": { "type": "MultiPoint", "coordinates": [ [ 156359.0, 210004.0 ] ] } },
{ "type": "Feature", "properties": { "UIDN": 210141.0, "OIDN": 12444.0, "STOPID": 101525.0, "NAAMHALTE": "Deurne Van Riel", "TYPEHALTE": 2, "LBLTYPEHAL": "Belbus en niet-belbus", "CODEGEM": "11002", "NAAMGEM": "Antwerpen", "OBJECTID": 6, "districtcode": 6, "districtnaam": "DEURNE", "afkorting": "DE", "SHAPE_Length": 22536.537533671883, "SHAPE_Area": 13028861.702838693 }, "geometry": { "type": "MultiPoint", "coordinates": [ [ 157375.0, 211107.0 ] ] } },
{ "type": "Feature", "properties": { "UIDN": 210166.0, "OIDN": 207.0, "STOPID": 101640.0, "NAAMHALTE": "Deurne Van Riel", "TYPEHALTE": 2, "LBLTYPEHAL": "Belbus en niet-belbus", "CODEGEM": "11002", "NAAMGEM": "Antwerpen", "OBJECTID": 6, "districtcode": 6, "districtnaam": "DEURNE", "afkorting": "DE", "SHAPE_Length": 22536.537533671883, "SHAPE_Area": 13028861.702838693 }, "geometry": { "type": "MultiPoint", "coordinates": [ [ 157349.0, 211120.0 ] ] } },
{ "type": "Feature", "properties": { "UIDN": 210214.0, "OIDN": 14101.0, "STOPID": 108550.0, "NAAMHALTE": "Deurne Ruggeveld", "TYPEHALTE": 2, "LBLTYPEHAL": "Belbus en niet-belbus", "CODEGEM": "11002", "NAAMGEM": "Antwerpen", "OBJECTID": 6, "districtcode": 6, "districtnaam": "DEURNE", "afkorting": "DE", "SHAPE_Length": 22536.537533671883, "SHAPE_Area": 13028861.702838693 }, "geometry": { "type": "MultiPoint", "coordinates": [ [ 157898.0, 212205.0 ] ] } },
{ "type": "Feature", "properties": { "UIDN": 211070.0, "OIDN": 48945.0, "STOPID": 101845.0, "NAAMHALTE": "Deurne Florent Pauwels", "TYPEHALTE": 2, "LBLTYPEHAL": "Belbus en niet-belbus", "CODEGEM": "11002", "NAAMGEM": "Antwerpen", "OBJECTID": 6, "districtcode": 6, "districtnaam": "DEURNE", "afkorting": "DE", "SHAPE_Length": 22536.537533671883, "SHAPE_Area": 13028861.702838693 }, "geometry": { "type": "MultiPoint", "coordinates": [ [ 157093.0, 210667.0 ] ] } },
{ "type": "Feature", "properties": { "UIDN": 211076.0, "OIDN": 387.0, "STOPID": 101865.0, "NAAMHALTE": "Deurne De Brierstraat", "TYPEHALTE": 2, "LBLTYPEHAL": "Belbus en niet-belbus", "CODEGEM": "11002", "NAAMGEM": "Antwerpen", "OBJECTID": 6, "districtcode": 6, "districtnaam": "DEURNE", "afkorting": "DE", "SHAPE_Length": 22536.537533671883, "SHAPE_Area": 13028861.702838693 }, "geometry": { "type": "MultiPoint", "coordinates": [ [ 156001.0, 210285.0 ] ] } },
{ "type": "Feature", "properties": { "UIDN": 211131.0, "OIDN": 604.0, "STOPID": 102145.0, "NAAMHALTE": "Deurne de Villegasplein", "TYPEHALTE": 2, "LBLTYPEHAL": "Belbus en niet-belbus", "CODEGEM": "11002", "NAAMGEM": "Antwerpen", "OBJECTID": 6, "districtcode": 6, "districtnaam": "DEURNE", "afkorting": "DE", "SHAPE_Length": 22536.537533671883, "SHAPE_Area": 13028861.702838693 }, "geometry": { "type": "MultiPoint", "coordinates": [ [ 156965.0, 209941.0 ] ] } },
{ "type": "Feature", "properties": { "UIDN": 211132.0, "OIDN": 608.0, "STOPID": 102150.0, "NAAMHALTE": "Deurne de Villegasplein", "TYPEHALTE": 2, "LBLTYPEHAL": "Belbus en niet-belbus", "CODEGEM": "11002", "NAAMGEM": "Antwerpen", "OBJECTID": 6, "districtcode": 6, "districtnaam": "DEURNE", "afkorting": "DE", "SHAPE_Length": 22536.537533671883, "SHAPE_Area": 13028861.702838693 }, "geometry": { "type": "MultiPoint", "coordinates": [ [ 156974.0, 209947.0 ] ] } },
{ "type": "Feature", "properties": { "UIDN": 211206.0, "OIDN": 12589.0, "STOPID": 102446.0, "NAAMHALTE": "Deurne Florent Pauwels", "TYPEHALTE": 2, "LBLTYPEHAL": "Belbus en niet-belbus", "CODEGEM": "11002", "NAAMGEM": "Antwerpen", "OBJECTID": 6, "districtcode": 6, "districtnaam": "DEURNE", "afkorting": "DE", "SHAPE_Length": 22536.537533671883, "SHAPE_Area": 13028861.702838693 }, "geometry": { "type": "MultiPoint", "coordinates": [ [ 157144.0, 210619.0 ] ] } },
{ "type": "Feature", "properties": { "UIDN": 211214.0, "OIDN": 12643.0, "STOPID": 102515.0, "NAAMHALTE": "Deurne Bosuilplein", "TYPEHALTE": 2, "LBLTYPEHAL": "Belbus en niet-belbus", "CODEGEM": "11002", "NAAMGEM": "Antwerpen", "OBJECTID": 6, "districtcode": 6, "districtnaam": "DEURNE", "afkorting": "DE", "SHAPE_Length": 22536.537533671883, "SHAPE_Area": 13028861.702838693 }, "geometry": { "type": "MultiPoint", "coordinates": [ [ 156923.0, 213299.0 ] ] } },
{ "type": "Feature", "properties": { "UIDN": 212152.0, "OIDN": 12919.0, "STOPID": 102833.0, "NAAMHALTE": "Deurne Sterckshoflei", "TYPEHALTE": 2, "LBLTYPEHAL": "Belbus en niet-belbus", "CODEGEM": "11002", "NAAMGEM": "Antwerpen", "OBJECTID": 6, "districtcode": 6, "districtnaam": "DEURNE", "afkorting": "DE", "SHAPE_Length": 22536.537533671883, "SHAPE_Area": 13028861.702838693 }, "geometry": { "type": "MultiPoint", "coordinates": [ [ 156719.0, 211065.0 ] ] } },
{ "type": "Feature", "properties": { "UIDN": 212153.0, "OIDN": 12920.0, "STOPID": 102834.0, "NAAMHALTE": "Deurne Sterckshoflei", "TYPEHALTE": 2, "LBLTYPEHAL": "Belbus en niet-belbus", "CODEGEM": "11002", "NAAMGEM": "Antwerpen", "OBJECTID": 6, "districtcode": 6, "districtnaam": "DEURNE", "afkorting": "DE", "SHAPE_Length": 22536.537533671883, "SHAPE_Area": 13028861.702838693 }, "geometry": { "type": "MultiPoint", "coordinates": [ [ 156723.0, 211078.0 ] ] } },
{ "type": "Feature", "properties": { "UIDN": 212154.0, "OIDN": 12921.0, "STOPID": 102835.0, "NAAMHALTE": "Deurne Florent Pauwels", "TYPEHALTE": 2, "LBLTYPEHAL": "Belbus en niet-belbus", "CODEGEM": "11002", "NAAMGEM": "Antwerpen", "OBJECTID": 6, "districtcode": 6, "districtnaam": "DEURNE", "afkorting": "DE", "SHAPE_Length": 22536.537533671883, "SHAPE_Area": 13028861.702838693 }, "geometry": { "type": "MultiPoint", "coordinates": [ [ 157163.0, 210728.0 ] ] } },
{ "type": "Feature", "properties": { "UIDN": 212155.0, "OIDN": 12925.0, "STOPID": 102839.0, "NAAMHALTE": "Deurne Ruggeveldlaan Zuid", "TYPEHALTE": 2, "LBLTYPEHAL": "Belbus en niet-belbus", "CODEGEM": "11002", "NAAMGEM": "Antwerpen", "OBJECTID": 6, "districtcode": 6, "districtnaam": "DEURNE", "afkorting": "DE", "SHAPE_Length": 22536.537533671883, "SHAPE_Area": 13028861.702838693 }, "geometry": { "type": "MultiPoint", "coordinates": [ [ 157351.0, 210997.0 ] ] } },
{ "type": "Feature", "properties": { "UIDN": 212196.0, "OIDN": 37773.0, "STOPID": 102973.0, "NAAMHALTE": "Deurne Lunden", "TYPEHALTE": 2, "LBLTYPEHAL": "Belbus en niet-belbus", "CODEGEM": "11002", "NAAMGEM": "Antwerpen", "OBJECTID": 6, "districtcode": 6, "districtnaam": "DEURNE", "afkorting": "DE", "SHAPE_Length": 22536.537533671883, "SHAPE_Area": 13028861.702838693 }, "geometry": { "type": "MultiPoint", "coordinates": [ [ 156605.0, 212224.0 ] ] } },
{ "type": "Feature", "properties": { "UIDN": 212211.0, "OIDN": 48659.0, "STOPID": 103025.0, "NAAMHALTE": "Deurne J. Scheurweghstraat", "TYPEHALTE": 2, "LBLTYPEHAL": "Belbus en niet-belbus", "CODEGEM": "11002", "NAAMGEM": "Antwerpen", "OBJECTID": 6, "districtcode": 6, "districtnaam": "DEURNE", "afkorting": "DE", "SHAPE_Length": 22536.537533671883, "SHAPE_Area": 13028861.702838693 }, "geometry": { "type": "MultiPoint", "coordinates": [ [ 156215.0, 213024.0 ] ] } },
{ "type": "Feature", "properties": { "UIDN": 212214.0, "OIDN": 48660.0, "STOPID": 103030.0, "NAAMHALTE": "Deurne J. Scheurweghstraat", "TYPEHALTE": 2, "LBLTYPEHAL": "Belbus en niet-belbus", "CODEGEM": "11002", "NAAMGEM": "Antwerpen", "OBJECTID": 6, "districtcode": 6, "districtnaam": "DEURNE", "afkorting": "DE", "SHAPE_Length": 22536.537533671883, "SHAPE_Area": 13028861.702838693 }, "geometry": { "type": "MultiPoint", "coordinates": [ [ 156248.0, 213003.0 ] ] } },
{ "type": "Feature", "properties": { "UIDN": 212224.0, "OIDN": 42017.0, "STOPID": 103048.0, "NAAMHALTE": "Deurne Van Riel", "TYPEHALTE": 2, "LBLTYPEHAL": "Belbus en niet-belbus", "CODEGEM": "11002", "NAAMGEM": "Antwerpen", "OBJECTID": 6, "districtcode": 6, "districtnaam": "DEURNE", "afkorting": "DE", "SHAPE_Length": 22536.537533671883, "SHAPE_Area": 13028861.702838693 }, "geometry": { "type": "MultiPoint", "coordinates": [ [ 157471.0, 211158.0 ] ] } },
{ "type": "Feature", "properties": { "UIDN": 212226.0, "OIDN": 8325.0, "STOPID": 103075.0, "NAAMHALTE": "Deurne Menegemlei", "TYPEHALTE": 2, "LBLTYPEHAL": "Belbus en niet-belbus", "CODEGEM": "11002", "NAAMGEM": "Antwerpen", "OBJECTID": 6, "districtcode": 6, "districtnaam": "DEURNE", "afkorting": "DE", "SHAPE_Length": 22536.537533671883, "SHAPE_Area": 13028861.702838693 }, "geometry": { "type": "MultiPoint", "coordinates": [ [ 156391.0, 209969.0 ] ] } },
{ "type": "Feature", "properties": { "UIDN": 212239.0, "OIDN": 8337.0, "STOPID": 103130.0, "NAAMHALTE": "Deurne Van Overmeire", "TYPEHALTE": 2, "LBLTYPEHAL": "Belbus en niet-belbus", "CODEGEM": "11002", "NAAMGEM": "Antwerpen", "OBJECTID": 6, "districtcode": 6, "districtnaam": "DEURNE", "afkorting": "DE", "SHAPE_Length": 22536.537533671883, "SHAPE_Area": 13028861.702838693 }, "geometry": { "type": "MultiPoint", "coordinates": [ [ 157710.0, 213319.0 ] ] } },
{ "type": "Feature", "properties": { "UIDN": 212242.0, "OIDN": 8338.0, "STOPID": 103135.0, "NAAMHALTE": "Deurne Van Overmeire", "TYPEHALTE": 2, "LBLTYPEHAL": "Belbus en niet-belbus", "CODEGEM": "11002", "NAAMGEM": "Antwerpen", "OBJECTID": 6, "districtcode": 6, "districtnaam": "DEURNE", "afkorting": "DE", "SHAPE_Length": 22536.537533671883, "SHAPE_Area": 13028861.702838693 }, "geometry": { "type": "MultiPoint", "coordinates": [ [ 157700.0, 213278.0 ] ] } },
{ "type": "Feature", "properties": { "UIDN": 212300.0, "OIDN": 2441.0, "STOPID": 109940.0, "NAAMHALTE": "Deurne Frans Van Dijck", "TYPEHALTE": 2, "LBLTYPEHAL": "Belbus en niet-belbus", "CODEGEM": "11002", "NAAMGEM": "Antwerpen", "OBJECTID": 6, "districtcode": 6, "districtnaam": "DEURNE", "afkorting": "DE", "SHAPE_Length": 22536.537533671883, "SHAPE_Area": 13028861.702838693 }, "geometry": { "type": "MultiPoint", "coordinates": [ [ 157695.0, 212678.0 ] ] } },
{ "type": "Feature", "properties": { "UIDN": 212301.0, "OIDN": 2443.0, "STOPID": 109943.0, "NAAMHALTE": "Deurne Frans Van Dijck", "TYPEHALTE": 2, "LBLTYPEHAL": "Belbus en niet-belbus", "CODEGEM": "11002", "NAAMGEM": "Antwerpen", "OBJECTID": 6, "districtcode": 6, "districtnaam": "DEURNE", "afkorting": "DE", "SHAPE_Length": 22536.537533671883, "SHAPE_Area": 13028861.702838693 }, "geometry": { "type": "MultiPoint", "coordinates": [ [ 157727.0, 212690.0 ] ] } },
{ "type": "Feature", "properties": { "UIDN": 213322.0, "OIDN": 8580.0, "STOPID": 103640.0, "NAAMHALTE": "Deurne De Brierstraat", "TYPEHALTE": 2, "LBLTYPEHAL": "Belbus en niet-belbus", "CODEGEM": "11002", "NAAMGEM": "Antwerpen", "OBJECTID": 6, "districtcode": 6, "districtnaam": "DEURNE", "afkorting": "DE", "SHAPE_Length": 22536.537533671883, "SHAPE_Area": 13028861.702838693 }, "geometry": { "type": "MultiPoint", "coordinates": [ [ 156060.0, 210271.0 ] ] } },
{ "type": "Feature", "properties": { "UIDN": 213339.0, "OIDN": 48949.0, "STOPID": 103744.0, "NAAMHALTE": "Deurne Waterbaan", "TYPEHALTE": 2, "LBLTYPEHAL": "Belbus en niet-belbus", "CODEGEM": "11002", "NAAMGEM": "Antwerpen", "OBJECTID": 6, "districtcode": 6, "districtnaam": "DEURNE", "afkorting": "DE", "SHAPE_Length": 22536.537533671883, "SHAPE_Area": 13028861.702838693 }, "geometry": { "type": "MultiPoint", "coordinates": [ [ 156646.0, 210905.0 ] ] } },
{ "type": "Feature", "properties": { "UIDN": 213347.0, "OIDN": 48867.0, "STOPID": 103759.0, "NAAMHALTE": "Deurne Rivierenhof Zuid", "TYPEHALTE": 2, "LBLTYPEHAL": "Belbus en niet-belbus", "CODEGEM": "11002", "NAAMGEM": "Antwerpen", "OBJECTID": 6, "districtcode": 6, "districtnaam": "DEURNE", "afkorting": "DE", "SHAPE_Length": 22536.537533671883, "SHAPE_Area": 13028861.702838693 }, "geometry": { "type": "MultiPoint", "coordinates": [ [ 156658.0, 211276.0 ] ] } },
{ "type": "Feature", "properties": { "UIDN": 213372.0, "OIDN": 8674.0, "STOPID": 103865.0, "NAAMHALTE": "Deurne Torremansstraat", "TYPEHALTE": 2, "LBLTYPEHAL": "Belbus en niet-belbus", "CODEGEM": "11002", "NAAMGEM": "Antwerpen", "OBJECTID": 6, "districtcode": 6, "districtnaam": "DEURNE", "afkorting": "DE", "SHAPE_Length": 22536.537533671883, "SHAPE_Area": 13028861.702838693 }, "geometry": { "type": "MultiPoint", "coordinates": [ [ 156078.0, 213583.0 ] ] } },
{ "type": "Feature", "properties": { "UIDN": 213373.0, "OIDN": 48677.0, "STOPID": 103870.0, "NAAMHALTE": "Deurne Lakborslei", "TYPEHALTE": 2, "LBLTYPEHAL": "Belbus en niet-belbus", "CODEGEM": "11002", "NAAMGEM": "Antwerpen", "OBJECTID": 6, "districtcode": 6, "districtnaam": "DEURNE", "afkorting": "DE", "SHAPE_Length": 22536.537533671883, "SHAPE_Area": 13028861.702838693 }, "geometry": { "type": "MultiPoint", "coordinates": [ [ 156104.0, 213442.0 ] ] } },
{ "type": "Feature", "properties": { "UIDN": 213376.0, "OIDN": 8678.0, "STOPID": 103885.0, "NAAMHALTE": "Deurne Lakborslei", "TYPEHALTE": 2, "LBLTYPEHAL": "Belbus en niet-belbus", "CODEGEM": "11002", "NAAMGEM": "Antwerpen", "OBJECTID": 6, "districtcode": 6, "districtnaam": "DEURNE", "afkorting": "DE", "SHAPE_Length": 22536.537533671883, "SHAPE_Area": 13028861.702838693 }, "geometry": { "type": "MultiPoint", "coordinates": [ [ 155933.0, 213005.0 ] ] } },
{ "type": "Feature", "properties": { "UIDN": 213412.0, "OIDN": 789.0, "STOPID": 104081.0, "NAAMHALTE": "Deurne Luchthaven", "TYPEHALTE": 2, "LBLTYPEHAL": "Belbus en niet-belbus", "CODEGEM": "11002", "NAAMGEM": "Antwerpen", "OBJECTID": 6, "districtcode": 6, "districtnaam": "DEURNE", "afkorting": "DE", "SHAPE_Length": 22536.537533671883, "SHAPE_Area": 13028861.702838693 }, "geometry": { "type": "MultiPoint", "coordinates": [ [ 155690.0, 208851.0 ] ] } },
{ "type": "Feature", "properties": { "UIDN": 213413.0, "OIDN": 790.0, "STOPID": 104082.0, "NAAMHALTE": "Deurne Luchthaven", "TYPEHALTE": 2, "LBLTYPEHAL": "Belbus en niet-belbus", "CODEGEM": "11002", "NAAMGEM": "Antwerpen", "OBJECTID": 6, "districtcode": 6, "districtnaam": "DEURNE", "afkorting": "DE", "SHAPE_Length": 22536.537533671883, "SHAPE_Area": 13028861.702838693 }, "geometry": { "type": "MultiPoint", "coordinates": [ [ 155690.0, 208852.0 ] ] } },
{ "type": "Feature", "properties": { "UIDN": 213425.0, "OIDN": 816.0, "STOPID": 104117.0, "NAAMHALTE": "Deurne Boekenbergpark", "TYPEHALTE": 2, "LBLTYPEHAL": "Belbus en niet-belbus", "CODEGEM": "11002", "NAAMGEM": "Antwerpen", "OBJECTID": 6, "districtcode": 6, "districtnaam": "DEURNE", "afkorting": "DE", "SHAPE_Length": 22536.537533671883, "SHAPE_Area": 13028861.702838693 }, "geometry": { "type": "MultiPoint", "coordinates": [ [ 156775.0, 210058.0 ] ] } },
{ "type": "Feature", "properties": { "UIDN": 213429.0, "OIDN": 820.0, "STOPID": 104122.0, "NAAMHALTE": "Deurne Boekenbergpark", "TYPEHALTE": 2, "LBLTYPEHAL": "Belbus en niet-belbus", "CODEGEM": "11002", "NAAMGEM": "Antwerpen", "OBJECTID": 6, "districtcode": 6, "districtnaam": "DEURNE", "afkorting": "DE", "SHAPE_Length": 22536.537533671883, "SHAPE_Area": 13028861.702838693 }, "geometry": { "type": "MultiPoint", "coordinates": [ [ 156769.0, 210050.0 ] ] } },
{ "type": "Feature", "properties": { "UIDN": 214497.0, "OIDN": 863.0, "STOPID": 104256.0, "NAAMHALTE": "Deurne Middelmolenlaan", "TYPEHALTE": 2, "LBLTYPEHAL": "Belbus en niet-belbus", "CODEGEM": "11002", "NAAMGEM": "Antwerpen", "OBJECTID": 6, "districtcode": 6, "districtnaam": "DEURNE", "afkorting": "DE", "SHAPE_Length": 22536.537533671883, "SHAPE_Area": 13028861.702838693 }, "geometry": { "type": "MultiPoint", "coordinates": [ [ 156735.0, 213853.0 ] ] } },
{ "type": "Feature", "properties": { "UIDN": 214518.0, "OIDN": 48869.0, "STOPID": 104335.0, "NAAMHALTE": "Deurne Muggenberg", "TYPEHALTE": 2, "LBLTYPEHAL": "Belbus en niet-belbus", "CODEGEM": "11002", "NAAMGEM": "Antwerpen", "OBJECTID": 6, "districtcode": 6, "districtnaam": "DEURNE", "afkorting": "DE", "SHAPE_Length": 22536.537533671883, "SHAPE_Area": 13028861.702838693 }, "geometry": { "type": "MultiPoint", "coordinates": [ [ 156088.0, 211085.0 ] ] } },
{ "type": "Feature", "properties": { "UIDN": 214520.0, "OIDN": 48870.0, "STOPID": 104340.0, "NAAMHALTE": "Deurne Muggenberg", "TYPEHALTE": 2, "LBLTYPEHAL": "Belbus en niet-belbus", "CODEGEM": "11002", "NAAMGEM": "Antwerpen", "OBJECTID": 6, "districtcode": 6, "districtnaam": "DEURNE", "afkorting": "DE", "SHAPE_Length": 22536.537533671883, "SHAPE_Area": 13028861.702838693 }, "geometry": { "type": "MultiPoint", "coordinates": [ [ 156141.0, 211030.0 ] ] } },
{ "type": "Feature", "properties": { "UIDN": 214623.0, "OIDN": 13040.0, "STOPID": 104895.0, "NAAMHALTE": "Deurne Seraphin de Grootestraat", "TYPEHALTE": 2, "LBLTYPEHAL": "Belbus en niet-belbus", "CODEGEM": "11002", "NAAMGEM": "Antwerpen", "OBJECTID": 6, "districtcode": 6, "districtnaam": "DEURNE", "afkorting": "DE", "SHAPE_Length": 22536.537533671883, "SHAPE_Area": 13028861.702838693 }, "geometry": { "type": "MultiPoint", "coordinates": [ [ 157778.0, 212294.0 ] ] } },
{ "type": "Feature", "properties": { "UIDN": 215588.0, "OIDN": 13397.0, "STOPID": 105350.0, "NAAMHALTE": "Deurne Sterckshof", "TYPEHALTE": 2, "LBLTYPEHAL": "Belbus en niet-belbus", "CODEGEM": "11002", "NAAMGEM": "Antwerpen", "OBJECTID": 6, "districtcode": 6, "districtnaam": "DEURNE", "afkorting": "DE", "SHAPE_Length": 22536.537533671883, "SHAPE_Area": 13028861.702838693 }, "geometry": { "type": "MultiPoint", "coordinates": [ [ 156599.0, 211705.0 ] ] } },
{ "type": "Feature", "properties": { "UIDN": 215589.0, "OIDN": 13398.0, "STOPID": 105351.0, "NAAMHALTE": "Deurne Sterckshof", "TYPEHALTE": 2, "LBLTYPEHAL": "Belbus en niet-belbus", "CODEGEM": "11002", "NAAMGEM": "Antwerpen", "OBJECTID": 6, "districtcode": 6, "districtnaam": "DEURNE", "afkorting": "DE", "SHAPE_Length": 22536.537533671883, "SHAPE_Area": 13028861.702838693 }, "geometry": { "type": "MultiPoint", "coordinates": [ [ 156596.0, 211676.0 ] ] } },
{ "type": "Feature", "properties": { "UIDN": 215622.0, "OIDN": 4142.0, "STOPID": 105465.0, "NAAMHALTE": "Deurne Ten Eekhove", "TYPEHALTE": 2, "LBLTYPEHAL": "Belbus en niet-belbus", "CODEGEM": "11002", "NAAMGEM": "Antwerpen", "OBJECTID": 6, "districtcode": 6, "districtnaam": "DEURNE", "afkorting": "DE", "SHAPE_Length": 22536.537533671883, "SHAPE_Area": 13028861.702838693 }, "geometry": { "type": "MultiPoint", "coordinates": [ [ 155644.0, 213015.0 ] ] } },
{ "type": "Feature", "properties": { "UIDN": 215635.0, "OIDN": 4167.0, "STOPID": 105490.0, "NAAMHALTE": "Deurne Ter Heydelaan", "TYPEHALTE": 2, "LBLTYPEHAL": "Belbus en niet-belbus", "CODEGEM": "11002", "NAAMGEM": "Antwerpen", "OBJECTID": 6, "districtcode": 6, "districtnaam": "DEURNE", "afkorting": "DE", "SHAPE_Length": 22536.537533671883, "SHAPE_Area": 13028861.702838693 }, "geometry": { "type": "MultiPoint", "coordinates": [ [ 157038.0, 213176.0 ] ] } },
{ "type": "Feature", "properties": { "UIDN": 215637.0, "OIDN": 4172.0, "STOPID": 105495.0, "NAAMHALTE": "Deurne Ter Heydelaan", "TYPEHALTE": 2, "LBLTYPEHAL": "Belbus en niet-belbus", "CODEGEM": "11002", "NAAMGEM": "Antwerpen", "OBJECTID": 6, "districtcode": 6, "districtnaam": "DEURNE", "afkorting": "DE", "SHAPE_Length": 22536.537533671883, "SHAPE_Area": 13028861.702838693 }, "geometry": { "type": "MultiPoint", "coordinates": [ [ 156972.0, 213106.0 ] ] } },
{ "type": "Feature", "properties": { "UIDN": 215658.0, "OIDN": 4201.0, "STOPID": 105525.0, "NAAMHALTE": "Deurne Torremansstraat", "TYPEHALTE": 2, "LBLTYPEHAL": "Belbus en niet-belbus", "CODEGEM": "11002", "NAAMGEM": "Antwerpen", "OBJECTID": 6, "districtcode": 6, "districtnaam": "DEURNE", "afkorting": "DE", "SHAPE_Length": 22536.537533671883, "SHAPE_Area": 13028861.702838693 }, "geometry": { "type": "MultiPoint", "coordinates": [ [ 156107.0, 213625.0 ] ] } },
{ "type": "Feature", "properties": { "UIDN": 215675.0, "OIDN": 4238.0, "STOPID": 105565.0, "NAAMHALTE": "Deurne Turnhoutsebaan", "TYPEHALTE": 2, "LBLTYPEHAL": "Belbus en niet-belbus", "CODEGEM": "11002", "NAAMGEM": "Antwerpen", "OBJECTID": 6, "districtcode": 6, "districtnaam": "DEURNE", "afkorting": "DE", "SHAPE_Length": 22536.537533671883, "SHAPE_Area": 13028861.702838693 }, "geometry": { "type": "MultiPoint", "coordinates": [ [ 156432.0, 212062.0 ] ] } },
{ "type": "Feature", "properties": { "UIDN": 215676.0, "OIDN": 4243.0, "STOPID": 105570.0, "NAAMHALTE": "Deurne Turnhoutsebaan", "TYPEHALTE": 2, "LBLTYPEHAL": "Belbus en niet-belbus", "CODEGEM": "11002", "NAAMGEM": "Antwerpen", "OBJECTID": 6, "districtcode": 6, "districtnaam": "DEURNE", "afkorting": "DE", "SHAPE_Length": 22536.537533671883, "SHAPE_Area": 13028861.702838693 }, "geometry": { "type": "MultiPoint", "coordinates": [ [ 156427.0, 212104.0 ] ] } },
{ "type": "Feature", "properties": { "UIDN": 216538.0, "OIDN": 4334.0, "STOPID": 105665.0, "NAAMHALTE": "Deurne Van Deynsestraat", "TYPEHALTE": 2, "LBLTYPEHAL": "Belbus en niet-belbus", "CODEGEM": "11002", "NAAMGEM": "Antwerpen", "OBJECTID": 6, "districtcode": 6, "districtnaam": "DEURNE", "afkorting": "DE", "SHAPE_Length": 22536.537533671883, "SHAPE_Area": 13028861.702838693 }, "geometry": { "type": "MultiPoint", "coordinates": [ [ 155683.0, 213504.0 ] ] } },
{ "type": "Feature", "properties": { "UIDN": 216540.0, "OIDN": 4338.0, "STOPID": 105670.0, "NAAMHALTE": "Deurne Van Deynsestraat", "TYPEHALTE": 2, "LBLTYPEHAL": "Belbus en niet-belbus", "CODEGEM": "11002", "NAAMGEM": "Antwerpen", "OBJECTID": 6, "districtcode": 6, "districtnaam": "DEURNE", "afkorting": "DE", "SHAPE_Length": 22536.537533671883, "SHAPE_Area": 13028861.702838693 }, "geometry": { "type": "MultiPoint", "coordinates": [ [ 155724.0, 213484.0 ] ] } },
{ "type": "Feature", "properties": { "UIDN": 216568.0, "OIDN": 4385.0, "STOPID": 105720.0, "NAAMHALTE": "Antwerpen Van Nevelestraat", "TYPEHALTE": 2, "LBLTYPEHAL": "Belbus en niet-belbus", "CODEGEM": "11002", "NAAMGEM": "Antwerpen", "OBJECTID": 6, "districtcode": 6, "districtnaam": "DEURNE", "afkorting": "DE", "SHAPE_Length": 22536.537533671883, "SHAPE_Area": 13028861.702838693 }, "geometry": { "type": "MultiPoint", "coordinates": [ [ 155409.0, 213362.0 ] ] } },
{ "type": "Feature", "properties": { "UIDN": 216601.0, "OIDN": 4434.0, "STOPID": 105770.0, "NAAMHALTE": "Deurne Venneborglaan", "TYPEHALTE": 2, "LBLTYPEHAL": "Belbus en niet-belbus", "CODEGEM": "11002", "NAAMGEM": "Antwerpen", "OBJECTID": 6, "districtcode": 6, "districtnaam": "DEURNE", "afkorting": "DE", "SHAPE_Length": 22536.537533671883, "SHAPE_Area": 13028861.702838693 }, "geometry": { "type": "MultiPoint", "coordinates": [ [ 157401.0, 212692.0 ] ] } },
{ "type": "Feature", "properties": { "UIDN": 221205.0, "OIDN": 12368.0, "STOPID": 101170.0, "NAAMHALTE": "Deurne Atheneum", "TYPEHALTE": 2, "LBLTYPEHAL": "Belbus en niet-belbus", "CODEGEM": "11002", "NAAMGEM": "Antwerpen", "OBJECTID": 6, "districtcode": 6, "districtnaam": "DEURNE", "afkorting": "DE", "SHAPE_Length": 22536.537533671883, "SHAPE_Area": 13028861.702838693 }, "geometry": { "type": "MultiPoint", "coordinates": [ [ 156301.0, 212500.0 ] ] } },
{ "type": "Feature", "properties": { "UIDN": 221226.0, "OIDN": 126.0, "STOPID": 101440.0, "NAAMHALTE": "Deurne Drakenhoflaan", "TYPEHALTE": 2, "LBLTYPEHAL": "Belbus en niet-belbus", "CODEGEM": "11002", "NAAMGEM": "Antwerpen", "OBJECTID": 6, "districtcode": 6, "districtnaam": "DEURNE", "afkorting": "DE", "SHAPE_Length": 22536.537533671883, "SHAPE_Area": 13028861.702838693 }, "geometry": { "type": "MultiPoint", "coordinates": [ [ 156354.0, 209639.0 ] ] } },
{ "type": "Feature", "properties": { "UIDN": 221259.0, "OIDN": 48655.0, "STOPID": 101971.0, "NAAMHALTE": "Deurne Deurnebaan Albertkanaal", "TYPEHALTE": 2, "LBLTYPEHAL": "Belbus en niet-belbus", "CODEGEM": "11002", "NAAMGEM": "Antwerpen", "OBJECTID": 6, "districtcode": 6, "districtnaam": "DEURNE", "afkorting": "DE", "SHAPE_Length": 22536.537533671883, "SHAPE_Area": 13028861.702838693 }, "geometry": { "type": "MultiPoint", "coordinates": [ [ 155978.0, 214133.0 ] ] } },
{ "type": "Feature", "properties": { "UIDN": 221287.0, "OIDN": 12559.0, "STOPID": 102410.0, "NAAMHALTE": "Deurne Gallifortlei", "TYPEHALTE": 2, "LBLTYPEHAL": "Belbus en niet-belbus", "CODEGEM": "11002", "NAAMGEM": "Antwerpen", "OBJECTID": 6, "districtcode": 6, "districtnaam": "DEURNE", "afkorting": "DE", "SHAPE_Length": 22536.537533671883, "SHAPE_Area": 13028861.702838693 }, "geometry": { "type": "MultiPoint", "coordinates": [ [ 156367.0, 212283.0 ] ] } },
{ "type": "Feature", "properties": { "UIDN": 221312.0, "OIDN": 12648.0, "STOPID": 102520.0, "NAAMHALTE": "Deurne Bosuilplein", "TYPEHALTE": 2, "LBLTYPEHAL": "Belbus en niet-belbus", "CODEGEM": "11002", "NAAMGEM": "Antwerpen", "OBJECTID": 6, "districtcode": 6, "districtnaam": "DEURNE", "afkorting": "DE", "SHAPE_Length": 22536.537533671883, "SHAPE_Area": 13028861.702838693 }, "geometry": { "type": "MultiPoint", "coordinates": [ [ 156900.0, 213373.0 ] ] } },
{ "type": "Feature", "properties": { "UIDN": 221345.0, "OIDN": 12922.0, "STOPID": 102836.0, "NAAMHALTE": "Deurne Esdoorndreef", "TYPEHALTE": 2, "LBLTYPEHAL": "Belbus en niet-belbus", "CODEGEM": "11002", "NAAMGEM": "Antwerpen", "OBJECTID": 6, "districtcode": 6, "districtnaam": "DEURNE", "afkorting": "DE", "SHAPE_Length": 22536.537533671883, "SHAPE_Area": 13028861.702838693 }, "geometry": { "type": "MultiPoint", "coordinates": [ [ 157178.0, 210999.0 ] ] } },
{ "type": "Feature", "properties": { "UIDN": 221346.0, "OIDN": 12923.0, "STOPID": 102837.0, "NAAMHALTE": "Deurne Esdoorndreef", "TYPEHALTE": 2, "LBLTYPEHAL": "Belbus en niet-belbus", "CODEGEM": "11002", "NAAMGEM": "Antwerpen", "OBJECTID": 6, "districtcode": 6, "districtnaam": "DEURNE", "afkorting": "DE", "SHAPE_Length": 22536.537533671883, "SHAPE_Area": 13028861.702838693 }, "geometry": { "type": "MultiPoint", "coordinates": [ [ 157115.0, 211013.0 ] ] } },
{ "type": "Feature", "properties": { "UIDN": 221347.0, "OIDN": 12924.0, "STOPID": 102838.0, "NAAMHALTE": "Deurne Ruggeveldlaan Zuid", "TYPEHALTE": 2, "LBLTYPEHAL": "Belbus en niet-belbus", "CODEGEM": "11002", "NAAMGEM": "Antwerpen", "OBJECTID": 6, "districtcode": 6, "districtnaam": "DEURNE", "afkorting": "DE", "SHAPE_Length": 22536.537533671883, "SHAPE_Area": 13028861.702838693 }, "geometry": { "type": "MultiPoint", "coordinates": [ [ 157348.0, 210983.0 ] ] } },
{ "type": "Feature", "properties": { "UIDN": 221348.0, "OIDN": 48948.0, "STOPID": 102840.0, "NAAMHALTE": "Deurne Waterbaan", "TYPEHALTE": 2, "LBLTYPEHAL": "Belbus en niet-belbus", "CODEGEM": "11002", "NAAMGEM": "Antwerpen", "OBJECTID": 6, "districtcode": 6, "districtnaam": "DEURNE", "afkorting": "DE", "SHAPE_Length": 22536.537533671883, "SHAPE_Area": 13028861.702838693 }, "geometry": { "type": "MultiPoint", "coordinates": [ [ 156681.0, 210892.0 ] ] } },
{ "type": "Feature", "properties": { "UIDN": 221349.0, "OIDN": 12927.0, "STOPID": 102841.0, "NAAMHALTE": "Deurne Peter Benoitlaan", "TYPEHALTE": 2, "LBLTYPEHAL": "Belbus en niet-belbus", "CODEGEM": "11002", "NAAMGEM": "Antwerpen", "OBJECTID": 6, "districtcode": 6, "districtnaam": "DEURNE", "afkorting": "DE", "SHAPE_Length": 22536.537533671883, "SHAPE_Area": 13028861.702838693 }, "geometry": { "type": "MultiPoint", "coordinates": [ [ 157742.0, 210831.0 ] ] } },
{ "type": "Feature", "properties": { "UIDN": 221350.0, "OIDN": 12928.0, "STOPID": 102842.0, "NAAMHALTE": "Deurne Peter Benoitlaan", "TYPEHALTE": 2, "LBLTYPEHAL": "Belbus en niet-belbus", "CODEGEM": "11002", "NAAMGEM": "Antwerpen", "OBJECTID": 6, "districtcode": 6, "districtnaam": "DEURNE", "afkorting": "DE", "SHAPE_Length": 22536.537533671883, "SHAPE_Area": 13028861.702838693 }, "geometry": { "type": "MultiPoint", "coordinates": [ [ 157757.0, 210837.0 ] ] } },
{ "type": "Feature", "properties": { "UIDN": 221365.0, "OIDN": 37772.0, "STOPID": 102972.0, "NAAMHALTE": "Deurne Lunden", "TYPEHALTE": 2, "LBLTYPEHAL": "Belbus en niet-belbus", "CODEGEM": "11002", "NAAMGEM": "Antwerpen", "OBJECTID": 6, "districtcode": 6, "districtnaam": "DEURNE", "afkorting": "DE", "SHAPE_Length": 22536.537533671883, "SHAPE_Area": 13028861.702838693 }, "geometry": { "type": "MultiPoint", "coordinates": [ [ 156628.0, 212246.0 ] ] } },
{ "type": "Feature", "properties": { "UIDN": 221649.0, "OIDN": 8326.0, "STOPID": 103080.0, "NAAMHALTE": "Deurne Boekenberglei", "TYPEHALTE": 2, "LBLTYPEHAL": "Belbus en niet-belbus", "CODEGEM": "11002", "NAAMGEM": "Antwerpen", "OBJECTID": 6, "districtcode": 6, "districtnaam": "DEURNE", "afkorting": "DE", "SHAPE_Length": 22536.537533671883, "SHAPE_Area": 13028861.702838693 }, "geometry": { "type": "MultiPoint", "coordinates": [ [ 156349.0, 210077.0 ] ] } },
{ "type": "Feature", "properties": { "UIDN": 221684.0, "OIDN": 48868.0, "STOPID": 103761.0, "NAAMHALTE": "Deurne Rivierenhof Zuid", "TYPEHALTE": 2, "LBLTYPEHAL": "Belbus en niet-belbus", "CODEGEM": "11002", "NAAMGEM": "Antwerpen", "OBJECTID": 6, "districtcode": 6, "districtnaam": "DEURNE", "afkorting": "DE", "SHAPE_Length": 22536.537533671883, "SHAPE_Area": 13028861.702838693 }, "geometry": { "type": "MultiPoint", "coordinates": [ [ 156671.0, 211270.0 ] ] } },
{ "type": "Feature", "properties": { "UIDN": 221690.0, "OIDN": 49715.0, "STOPID": 103813.0, "NAAMHALTE": "Deurne Vosstraat", "TYPEHALTE": 2, "LBLTYPEHAL": "Belbus en niet-belbus", "CODEGEM": "11002", "NAAMGEM": "Antwerpen", "OBJECTID": 6, "districtcode": 6, "districtnaam": "DEURNE", "afkorting": "DE", "SHAPE_Length": 22536.537533671883, "SHAPE_Area": 13028861.702838693 }, "geometry": { "type": "MultiPoint", "coordinates": [ [ 155627.0, 208935.0 ] ] } },
{ "type": "Feature", "properties": { "UIDN": 221694.0, "OIDN": 48678.0, "STOPID": 103875.0, "NAAMHALTE": "Deurne Lakborslei", "TYPEHALTE": 2, "LBLTYPEHAL": "Belbus en niet-belbus", "CODEGEM": "11002", "NAAMGEM": "Antwerpen", "OBJECTID": 6, "districtcode": 6, "districtnaam": "DEURNE", "afkorting": "DE", "SHAPE_Length": 22536.537533671883, "SHAPE_Area": 13028861.702838693 }, "geometry": { "type": "MultiPoint", "coordinates": [ [ 156138.0, 213410.0 ] ] } },
{ "type": "Feature", "properties": { "UIDN": 221695.0, "OIDN": 8677.0, "STOPID": 103880.0, "NAAMHALTE": "Deurne Lakborslei", "TYPEHALTE": 2, "LBLTYPEHAL": "Belbus en niet-belbus", "CODEGEM": "11002", "NAAMGEM": "Antwerpen", "OBJECTID": 6, "districtcode": 6, "districtnaam": "DEURNE", "afkorting": "DE", "SHAPE_Length": 22536.537533671883, "SHAPE_Area": 13028861.702838693 }, "geometry": { "type": "MultiPoint", "coordinates": [ [ 155960.0, 212993.0 ] ] } },
{ "type": "Feature", "properties": { "UIDN": 221709.0, "OIDN": 821.0, "STOPID": 104123.0, "NAAMHALTE": "Deurne Boekenberglei", "TYPEHALTE": 2, "LBLTYPEHAL": "Belbus en niet-belbus", "CODEGEM": "11002", "NAAMGEM": "Antwerpen", "OBJECTID": 6, "districtcode": 6, "districtnaam": "DEURNE", "afkorting": "DE", "SHAPE_Length": 22536.537533671883, "SHAPE_Area": 13028861.702838693 }, "geometry": { "type": "MultiPoint", "coordinates": [ [ 156331.0, 210084.0 ] ] } },
{ "type": "Feature", "properties": { "UIDN": 221754.0, "OIDN": 13045.0, "STOPID": 104900.0, "NAAMHALTE": "Deurne Seraphin de Grootestraat", "TYPEHALTE": 2, "LBLTYPEHAL": "Belbus en niet-belbus", "CODEGEM": "11002", "NAAMGEM": "Antwerpen", "OBJECTID": 6, "districtcode": 6, "districtnaam": "DEURNE", "afkorting": "DE", "SHAPE_Length": 22536.537533671883, "SHAPE_Area": 13028861.702838693 }, "geometry": { "type": "MultiPoint", "coordinates": [ [ 157806.0, 212302.0 ] ] } },
{ "type": "Feature", "properties": { "UIDN": 221755.0, "OIDN": 13075.0, "STOPID": 104946.0, "NAAMHALTE": "Deurne Santvoortbeeklaan", "TYPEHALTE": 2, "LBLTYPEHAL": "Belbus en niet-belbus", "CODEGEM": "11002", "NAAMGEM": "Antwerpen", "OBJECTID": 6, "districtcode": 6, "districtnaam": "DEURNE", "afkorting": "DE", "SHAPE_Length": 22536.537533671883, "SHAPE_Area": 13028861.702838693 }, "geometry": { "type": "MultiPoint", "coordinates": [ [ 157022.0, 213966.0 ] ] } },
{ "type": "Feature", "properties": { "UIDN": 221810.0, "OIDN": 4147.0, "STOPID": 105470.0, "NAAMHALTE": "Deurne Ten Eekhove", "TYPEHALTE": 2, "LBLTYPEHAL": "Belbus en niet-belbus", "CODEGEM": "11002", "NAAMGEM": "Antwerpen", "OBJECTID": 6, "districtcode": 6, "districtnaam": "DEURNE", "afkorting": "DE", "SHAPE_Length": 22536.537533671883, "SHAPE_Area": 13028861.702838693 }, "geometry": { "type": "MultiPoint", "coordinates": [ [ 155726.0, 213003.0 ] ] } },
{ "type": "Feature", "properties": { "UIDN": 222009.0, "OIDN": 4329.0, "STOPID": 105660.0, "NAAMHALTE": "Deurne Van Nevelestraat", "TYPEHALTE": 2, "LBLTYPEHAL": "Belbus en niet-belbus", "CODEGEM": "11002", "NAAMGEM": "Antwerpen", "OBJECTID": 6, "districtcode": 6, "districtnaam": "DEURNE", "afkorting": "DE", "SHAPE_Length": 22536.537533671883, "SHAPE_Area": 13028861.702838693 }, "geometry": { "type": "MultiPoint", "coordinates": [ [ 155375.0, 213380.0 ] ] } },
{ "type": "Feature", "properties": { "UIDN": 222033.0, "OIDN": 4439.0, "STOPID": 105775.0, "NAAMHALTE": "Deurne Venneborglaan", "TYPEHALTE": 2, "LBLTYPEHAL": "Belbus en niet-belbus", "CODEGEM": "11002", "NAAMGEM": "Antwerpen", "OBJECTID": 6, "districtcode": 6, "districtnaam": "DEURNE", "afkorting": "DE", "SHAPE_Length": 22536.537533671883, "SHAPE_Area": 13028861.702838693 }, "geometry": { "type": "MultiPoint", "coordinates": [ [ 157420.0, 212676.0 ] ] } },
{ "type": "Feature", "properties": { "UIDN": 222035.0, "OIDN": 4449.0, "STOPID": 105785.0, "NAAMHALTE": "Deurne Venneborg", "TYPEHALTE": 2, "LBLTYPEHAL": "Belbus en niet-belbus", "CODEGEM": "11002", "NAAMGEM": "Antwerpen", "OBJECTID": 6, "districtcode": 6, "districtnaam": "DEURNE", "afkorting": "DE", "SHAPE_Length": 22536.537533671883, "SHAPE_Area": 13028861.702838693 }, "geometry": { "type": "MultiPoint", "coordinates": [ [ 157085.0, 212219.0 ] ] } },
{ "type": "Feature", "properties": { "UIDN": 222071.0, "OIDN": 4652.0, "STOPID": 106037.0, "NAAMHALTE": "Deurne Ertbrugge", "TYPEHALTE": 2, "LBLTYPEHAL": "Belbus en niet-belbus", "CODEGEM": "11002", "NAAMGEM": "Antwerpen", "OBJECTID": 6, "districtcode": 6, "districtnaam": "DEURNE", "afkorting": "DE", "SHAPE_Length": 22536.537533671883, "SHAPE_Area": 13028861.702838693 }, "geometry": { "type": "MultiPoint", "coordinates": [ [ 158755.0, 212483.0 ] ] } },
{ "type": "Feature", "properties": { "UIDN": 225276.0, "OIDN": 25.0, "STOPID": 101025.0, "NAAMHALTE": "Deurne Hermans", "TYPEHALTE": 1, "LBLTYPEHAL": "Niet-belbus", "CODEGEM": "11002", "NAAMGEM": "Antwerpen", "OBJECTID": 6, "districtcode": 6, "districtnaam": "DEURNE", "afkorting": "DE", "SHAPE_Length": 22536.537533671883, "SHAPE_Area": 13028861.702838693 }, "geometry": { "type": "MultiPoint", "coordinates": [ [ 157354.0, 213386.0 ] ] } },
{ "type": "Feature", "properties": { "UIDN": 225277.0, "OIDN": 28.0, "STOPID": 101030.0, "NAAMHALTE": "Deurne Hermans", "TYPEHALTE": 1, "LBLTYPEHAL": "Niet-belbus", "CODEGEM": "11002", "NAAMGEM": "Antwerpen", "OBJECTID": 6, "districtcode": 6, "districtnaam": "DEURNE", "afkorting": "DE", "SHAPE_Length": 22536.537533671883, "SHAPE_Area": 13028861.702838693 }, "geometry": { "type": "MultiPoint", "coordinates": [ [ 157403.0, 213406.0 ] ] } },
{ "type": "Feature", "properties": { "UIDN": 225289.0, "OIDN": 12349.0, "STOPID": 101145.0, "NAAMHALTE": "Deurne Antwerp stadion", "TYPEHALTE": 1, "LBLTYPEHAL": "Niet-belbus", "CODEGEM": "11002", "NAAMGEM": "Antwerpen", "OBJECTID": 6, "districtcode": 6, "districtnaam": "DEURNE", "afkorting": "DE", "SHAPE_Length": 22536.537533671883, "SHAPE_Area": 13028861.702838693 }, "geometry": { "type": "MultiPoint", "coordinates": [ [ 157052.0, 213171.0 ] ] } },
{ "type": "Feature", "properties": { "UIDN": 225332.0, "OIDN": 238.0, "STOPID": 101675.0, "NAAMHALTE": "Deurne Clara Snellings", "TYPEHALTE": 1, "LBLTYPEHAL": "Niet-belbus", "CODEGEM": "11002", "NAAMGEM": "Antwerpen", "OBJECTID": 6, "districtcode": 6, "districtnaam": "DEURNE", "afkorting": "DE", "SHAPE_Length": 22536.537533671883, "SHAPE_Area": 13028861.702838693 }, "geometry": { "type": "MultiPoint", "coordinates": [ [ 156706.0, 213025.0 ] ] } },
{ "type": "Feature", "properties": { "UIDN": 225339.0, "OIDN": 300.0, "STOPID": 101765.0, "NAAMHALTE": "Deurne Cogelsplein", "TYPEHALTE": 1, "LBLTYPEHAL": "Niet-belbus", "CODEGEM": "11002", "NAAMGEM": "Antwerpen", "OBJECTID": 6, "districtcode": 6, "districtnaam": "DEURNE", "afkorting": "DE", "SHAPE_Length": 22536.537533671883, "SHAPE_Area": 13028861.702838693 }, "geometry": { "type": "MultiPoint", "coordinates": [ [ 156041.0, 212230.0 ] ] } },
{ "type": "Feature", "properties": { "UIDN": 225340.0, "OIDN": 301.0, "STOPID": 101770.0, "NAAMHALTE": "Deurne Cogelsplein", "TYPEHALTE": 1, "LBLTYPEHAL": "Niet-belbus", "CODEGEM": "11002", "NAAMGEM": "Antwerpen", "OBJECTID": 6, "districtcode": 6, "districtnaam": "DEURNE", "afkorting": "DE", "SHAPE_Length": 22536.537533671883, "SHAPE_Area": 13028861.702838693 }, "geometry": { "type": "MultiPoint", "coordinates": [ [ 156047.0, 212218.0 ] ] } },
{ "type": "Feature", "properties": { "UIDN": 225344.0, "OIDN": 311.0, "STOPID": 101785.0, "NAAMHALTE": "Deurne Confortalei", "TYPEHALTE": 1, "LBLTYPEHAL": "Niet-belbus", "CODEGEM": "11002", "NAAMGEM": "Antwerpen", "OBJECTID": 6, "districtcode": 6, "districtnaam": "DEURNE", "afkorting": "DE", "SHAPE_Length": 22536.537533671883, "SHAPE_Area": 13028861.702838693 }, "geometry": { "type": "MultiPoint", "coordinates": [ [ 156185.0, 213130.0 ] ] } },
{ "type": "Feature", "properties": { "UIDN": 225347.0, "OIDN": 316.0, "STOPID": 101790.0, "NAAMHALTE": "Deurne Confortalei", "TYPEHALTE": 1, "LBLTYPEHAL": "Niet-belbus", "CODEGEM": "11002", "NAAMGEM": "Antwerpen", "OBJECTID": 6, "districtcode": 6, "districtnaam": "DEURNE", "afkorting": "DE", "SHAPE_Length": 22536.537533671883, "SHAPE_Area": 13028861.702838693 }, "geometry": { "type": "MultiPoint", "coordinates": [ [ 156189.0, 213136.0 ] ] } },
{ "type": "Feature", "properties": { "UIDN": 225390.0, "OIDN": 625.0, "STOPID": 102170.0, "NAAMHALTE": "Deurne Eksterlaar", "TYPEHALTE": 1, "LBLTYPEHAL": "Niet-belbus", "CODEGEM": "11002", "NAAMGEM": "Antwerpen", "OBJECTID": 6, "districtcode": 6, "districtnaam": "DEURNE", "afkorting": "DE", "SHAPE_Length": 22536.537533671883, "SHAPE_Area": 13028861.702838693 }, "geometry": { "type": "MultiPoint", "coordinates": [ [ 156570.0, 210291.0 ] ] } },
{ "type": "Feature", "properties": { "UIDN": 225393.0, "OIDN": 677.0, "STOPID": 102225.0, "NAAMHALTE": "Deurne Craeybeckx", "TYPEHALTE": 1, "LBLTYPEHAL": "Niet-belbus", "CODEGEM": "11002", "NAAMGEM": "Antwerpen", "OBJECTID": 6, "districtcode": 6, "districtnaam": "DEURNE", "afkorting": "DE", "SHAPE_Length": 22536.537533671883, "SHAPE_Area": 13028861.702838693 }, "geometry": { "type": "MultiPoint", "coordinates": [ [ 156268.0, 212924.0 ] ] } },
{ "type": "Feature", "properties": { "UIDN": 225394.0, "OIDN": 682.0, "STOPID": 102230.0, "NAAMHALTE": "Deurne Craeybeckx", "TYPEHALTE": 1, "LBLTYPEHAL": "Niet-belbus", "CODEGEM": "11002", "NAAMGEM": "Antwerpen", "OBJECTID": 6, "districtcode": 6, "districtnaam": "DEURNE", "afkorting": "DE", "SHAPE_Length": 22536.537533671883, "SHAPE_Area": 13028861.702838693 }, "geometry": { "type": "MultiPoint", "coordinates": [ [ 156378.0, 212936.0 ] ] } },
{ "type": "Feature", "properties": { "UIDN": 225414.0, "OIDN": 12538.0, "STOPID": 102383.0, "NAAMHALTE": "Deurne Ertbrugge", "TYPEHALTE": 1, "LBLTYPEHAL": "Niet-belbus", "CODEGEM": "11002", "NAAMGEM": "Antwerpen", "OBJECTID": 6, "districtcode": 6, "districtnaam": "DEURNE", "afkorting": "DE", "SHAPE_Length": 22536.537533671883, "SHAPE_Area": 13028861.702838693 }, "geometry": { "type": "MultiPoint", "coordinates": [ [ 158765.0, 212478.0 ] ] } },
{ "type": "Feature", "properties": { "UIDN": 225419.0, "OIDN": 12564.0, "STOPID": 102415.0, "NAAMHALTE": "Deurne Gallifortlei", "TYPEHALTE": 1, "LBLTYPEHAL": "Niet-belbus", "CODEGEM": "11002", "NAAMGEM": "Antwerpen", "OBJECTID": 6, "districtcode": 6, "districtnaam": "DEURNE", "afkorting": "DE", "SHAPE_Length": 22536.537533671883, "SHAPE_Area": 13028861.702838693 }, "geometry": { "type": "MultiPoint", "coordinates": [ [ 156311.0, 212265.0 ] ] } },
{ "type": "Feature", "properties": { "UIDN": 225425.0, "OIDN": 12586.0, "STOPID": 102443.0, "NAAMHALTE": "Deurne Van Den Hautelei", "TYPEHALTE": 1, "LBLTYPEHAL": "Niet-belbus", "CODEGEM": "11002", "NAAMGEM": "Antwerpen", "OBJECTID": 6, "districtcode": 6, "districtnaam": "DEURNE", "afkorting": "DE", "SHAPE_Length": 22536.537533671883, "SHAPE_Area": 13028861.702838693 }, "geometry": { "type": "MultiPoint", "coordinates": [ [ 156910.0, 210294.0 ] ] } },
{ "type": "Feature", "properties": { "UIDN": 225426.0, "OIDN": 12587.0, "STOPID": 102444.0, "NAAMHALTE": "Deurne Van Den Hautelei", "TYPEHALTE": 1, "LBLTYPEHAL": "Niet-belbus", "CODEGEM": "11002", "NAAMGEM": "Antwerpen", "OBJECTID": 6, "districtcode": 6, "districtnaam": "DEURNE", "afkorting": "DE", "SHAPE_Length": 22536.537533671883, "SHAPE_Area": 13028861.702838693 }, "geometry": { "type": "MultiPoint", "coordinates": [ [ 156908.0, 210288.0 ] ] } },
{ "type": "Feature", "properties": { "UIDN": 225427.0, "OIDN": 12590.0, "STOPID": 102447.0, "NAAMHALTE": "Deurne Eksterlaar", "TYPEHALTE": 1, "LBLTYPEHAL": "Niet-belbus", "CODEGEM": "11002", "NAAMGEM": "Antwerpen", "OBJECTID": 6, "districtcode": 6, "districtnaam": "DEURNE", "afkorting": "DE", "SHAPE_Length": 22536.537533671883, "SHAPE_Area": 13028861.702838693 }, "geometry": { "type": "MultiPoint", "coordinates": [ [ 156567.0, 210281.0 ] ] } },
{ "type": "Feature", "properties": { "UIDN": 226006.0, "OIDN": 8248.0, "STOPID": 102931.0, "NAAMHALTE": "Deurne Frans Van Dijck", "TYPEHALTE": 1, "LBLTYPEHAL": "Niet-belbus", "CODEGEM": "11002", "NAAMGEM": "Antwerpen", "OBJECTID": 6, "districtcode": 6, "districtnaam": "DEURNE", "afkorting": "DE", "SHAPE_Length": 22536.537533671883, "SHAPE_Area": 13028861.702838693 }, "geometry": { "type": "MultiPoint", "coordinates": [ [ 157706.0, 212679.0 ] ] } },
{ "type": "Feature", "properties": { "UIDN": 226008.0, "OIDN": 8253.0, "STOPID": 102936.0, "NAAMHALTE": "Deurne Frans Van Dijck", "TYPEHALTE": 1, "LBLTYPEHAL": "Niet-belbus", "CODEGEM": "11002", "NAAMGEM": "Antwerpen", "OBJECTID": 6, "districtcode": 6, "districtnaam": "DEURNE", "afkorting": "DE", "SHAPE_Length": 22536.537533671883, "SHAPE_Area": 13028861.702838693 }, "geometry": { "type": "MultiPoint", "coordinates": [ [ 157715.0, 212689.0 ] ] } },
{ "type": "Feature", "properties": { "UIDN": 226022.0, "OIDN": 42018.0, "STOPID": 103049.0, "NAAMHALTE": "Deurne Van Riel", "TYPEHALTE": 1, "LBLTYPEHAL": "Niet-belbus", "CODEGEM": "11002", "NAAMGEM": "Antwerpen", "OBJECTID": 6, "districtcode": 6, "districtnaam": "DEURNE", "afkorting": "DE", "SHAPE_Length": 22536.537533671883, "SHAPE_Area": 13028861.702838693 }, "geometry": { "type": "MultiPoint", "coordinates": [ [ 157472.0, 211154.0 ] ] } },
{ "type": "Feature", "properties": { "UIDN": 227319.0, "OIDN": 13048.0, "STOPID": 104905.0, "NAAMHALTE": "Deurne Ruggeveldlaan", "TYPEHALTE": 1, "LBLTYPEHAL": "Niet-belbus", "CODEGEM": "11002", "NAAMGEM": "Antwerpen", "OBJECTID": 6, "districtcode": 6, "districtnaam": "DEURNE", "afkorting": "DE", "SHAPE_Length": 22536.537533671883, "SHAPE_Area": 13028861.702838693 }, "geometry": { "type": "MultiPoint", "coordinates": [ [ 157699.0, 213514.0 ] ] } },
{ "type": "Feature", "properties": { "UIDN": 227320.0, "OIDN": 13053.0, "STOPID": 104910.0, "NAAMHALTE": "Deurne Ruggeveldlaan", "TYPEHALTE": 1, "LBLTYPEHAL": "Niet-belbus", "CODEGEM": "11002", "NAAMGEM": "Antwerpen", "OBJECTID": 6, "districtcode": 6, "districtnaam": "DEURNE", "afkorting": "DE", "SHAPE_Length": 22536.537533671883, "SHAPE_Area": 13028861.702838693 }, "geometry": { "type": "MultiPoint", "coordinates": [ [ 157708.0, 213512.0 ] ] } },
{ "type": "Feature", "properties": { "UIDN": 228012.0, "OIDN": 4444.0, "STOPID": 105780.0, "NAAMHALTE": "Deurne Venneborg", "TYPEHALTE": 1, "LBLTYPEHAL": "Niet-belbus", "CODEGEM": "11002", "NAAMGEM": "Antwerpen", "OBJECTID": 6, "districtcode": 6, "districtnaam": "DEURNE", "afkorting": "DE", "SHAPE_Length": 22536.537533671883, "SHAPE_Area": 13028861.702838693 }, "geometry": { "type": "MultiPoint", "coordinates": [ [ 157086.0, 212210.0 ] ] } },
{ "type": "Feature", "properties": { "UIDN": 229505.0, "OIDN": 9176.0, "STOPID": 107730.0, "NAAMHALTE": "Deurne Havik", "TYPEHALTE": 1, "LBLTYPEHAL": "Niet-belbus", "CODEGEM": "11002", "NAAMGEM": "Antwerpen", "OBJECTID": 6, "districtcode": 6, "districtnaam": "DEURNE", "afkorting": "DE", "SHAPE_Length": 22536.537533671883, "SHAPE_Area": 13028861.702838693 }, "geometry": { "type": "MultiPoint", "coordinates": [ [ 158371.0, 212354.0 ] ] } },
{ "type": "Feature", "properties": { "UIDN": 230137.0, "OIDN": 14104.0, "STOPID": 108555.0, "NAAMHALTE": "Deurne Ruggeveld", "TYPEHALTE": 1, "LBLTYPEHAL": "Niet-belbus", "CODEGEM": "11002", "NAAMGEM": "Antwerpen", "OBJECTID": 6, "districtcode": 6, "districtnaam": "DEURNE", "afkorting": "DE", "SHAPE_Length": 22536.537533671883, "SHAPE_Area": 13028861.702838693 }, "geometry": { "type": "MultiPoint", "coordinates": [ [ 157939.0, 212228.0 ] ] } },
{ "type": "Feature", "properties": { "UIDN": 230152.0, "OIDN": 14146.0, "STOPID": 108645.0, "NAAMHALTE": "Deurne Schotensesteenweg", "TYPEHALTE": 1, "LBLTYPEHAL": "Niet-belbus", "CODEGEM": "11002", "NAAMGEM": "Antwerpen", "OBJECTID": 6, "districtcode": 6, "districtnaam": "DEURNE", "afkorting": "DE", "SHAPE_Length": 22536.537533671883, "SHAPE_Area": 13028861.702838693 }, "geometry": { "type": "MultiPoint", "coordinates": [ [ 157483.0, 212110.0 ] ] } },
{ "type": "Feature", "properties": { "UIDN": 233066.0, "OIDN": 55230.0, "STOPID": 135055.0, "NAAMHALTE": "Deurne Mortselsesteenweg", "TYPEHALTE": 3, "LBLTYPEHAL": "Belbus", "CODEGEM": "11002", "NAAMGEM": "Antwerpen", "OBJECTID": 6, "districtcode": 6, "districtnaam": "DEURNE", "afkorting": "DE", "SHAPE_Length": 22536.537533671883, "SHAPE_Area": 13028861.702838693 }, "geometry": { "type": "MultiPoint", "coordinates": [ [ 156920.0, 209413.0 ] ] } },
{ "type": "Feature", "properties": { "UIDN": 237436.0, "OIDN": 59167.0, "STOPID": 109488.0, "NAAMHALTE": "Deurne Luchthaven", "TYPEHALTE": 1, "LBLTYPEHAL": "Niet-belbus", "CODEGEM": "11002", "NAAMGEM": "Antwerpen", "OBJECTID": 6, "districtcode": 6, "districtnaam": "DEURNE", "afkorting": "DE", "SHAPE_Length": 22536.537533671883, "SHAPE_Area": 13028861.702838693 }, "geometry": { "type": "MultiPoint", "coordinates": [ [ 155762.0, 208731.0 ] ] } },
{ "type": "Feature", "properties": { "UIDN": 237437.0, "OIDN": 59168.0, "STOPID": 109490.0, "NAAMHALTE": "Deurne Luchthaven", "TYPEHALTE": 1, "LBLTYPEHAL": "Niet-belbus", "CODEGEM": "11002", "NAAMGEM": "Antwerpen", "OBJECTID": 6, "districtcode": 6, "districtnaam": "DEURNE", "afkorting": "DE", "SHAPE_Length": 22536.537533671883, "SHAPE_Area": 13028861.702838693 }, "geometry": { "type": "MultiPoint", "coordinates": [ [ 155750.0, 208725.0 ] ] } },
{ "type": "Feature", "properties": { "UIDN": 238096.0, "OIDN": 45693.0, "STOPID": 103046.0, "NAAMHALTE": "Deurne Parkweg", "TYPEHALTE": 1, "LBLTYPEHAL": "Niet-belbus", "CODEGEM": "11002", "NAAMGEM": "Antwerpen", "OBJECTID": 6, "districtcode": 6, "districtnaam": "DEURNE", "afkorting": "DE", "SHAPE_Length": 22536.537533671883, "SHAPE_Area": 13028861.702838693 }, "geometry": { "type": "MultiPoint", "coordinates": [ [ 157922.0, 211869.0 ] ] } },
{ "type": "Feature", "properties": { "UIDN": 238097.0, "OIDN": 45694.0, "STOPID": 103047.0, "NAAMHALTE": "Deurne Parkweg", "TYPEHALTE": 1, "LBLTYPEHAL": "Niet-belbus", "CODEGEM": "11002", "NAAMGEM": "Antwerpen", "OBJECTID": 6, "districtcode": 6, "districtnaam": "DEURNE", "afkorting": "DE", "SHAPE_Length": 22536.537533671883, "SHAPE_Area": 13028861.702838693 }, "geometry": { "type": "MultiPoint", "coordinates": [ [ 157918.0, 211865.0 ] ] } },
{ "type": "Feature", "properties": { "UIDN": 242909.0, "OIDN": 59710.0, "STOPID": 109592.0, "NAAMHALTE": "Deurne Cornelis Dyckstratelaan", "TYPEHALTE": 2, "LBLTYPEHAL": "Belbus en niet-belbus", "CODEGEM": "11002", "NAAMGEM": "Antwerpen", "OBJECTID": 6, "districtcode": 6, "districtnaam": "DEURNE", "afkorting": "DE", "SHAPE_Length": 22536.537533671883, "SHAPE_Area": 13028861.702838693 }, "geometry": { "type": "MultiPoint", "coordinates": [ [ 156549.0, 213742.0 ] ] } },
{ "type": "Feature", "properties": { "UIDN": 242910.0, "OIDN": 59711.0, "STOPID": 109598.0, "NAAMHALTE": "Deurne Cornelis Dyckstratelaan", "TYPEHALTE": 2, "LBLTYPEHAL": "Belbus en niet-belbus", "CODEGEM": "11002", "NAAMGEM": "Antwerpen", "OBJECTID": 6, "districtcode": 6, "districtnaam": "DEURNE", "afkorting": "DE", "SHAPE_Length": 22536.537533671883, "SHAPE_Area": 13028861.702838693 }, "geometry": { "type": "MultiPoint", "coordinates": [ [ 156538.0, 213707.0 ] ] } },
{ "type": "Feature", "properties": { "UIDN": 246550.0, "OIDN": 372.0, "STOPID": 101850.0, "NAAMHALTE": "Deurne Dassastraat (tijdelijk niet bediend)", "TYPEHALTE": 3, "LBLTYPEHAL": "Belbus", "CODEGEM": "11002", "NAAMGEM": "Antwerpen", "OBJECTID": 6, "districtcode": 6, "districtnaam": "DEURNE", "afkorting": "DE", "SHAPE_Length": 22536.537533671883, "SHAPE_Area": 13028861.702838693 }, "geometry": { "type": "MultiPoint", "coordinates": [ [ 157620.0, 210544.0 ] ] } },
{ "type": "Feature", "properties": { "UIDN": 246558.0, "OIDN": 13190.0, "STOPID": 105100.0, "NAAMHALTE": "Deurne Sport", "TYPEHALTE": 2, "LBLTYPEHAL": "Belbus en niet-belbus", "CODEGEM": "11002", "NAAMGEM": "Antwerpen", "OBJECTID": 6, "districtcode": 6, "districtnaam": "DEURNE", "afkorting": "DE", "SHAPE_Length": 22536.537533671883, "SHAPE_Area": 13028861.702838693 }, "geometry": { "type": "MultiPoint", "coordinates": [ [ 155181.0, 213376.0 ] ] } },
{ "type": "Feature", "properties": { "UIDN": 246700.0, "OIDN": 60684.0, "STOPID": 111701.0, "NAAMHALTE": "Wommelgem Silsburg Keerlus Dummy", "TYPEHALTE": 1, "LBLTYPEHAL": "Niet-belbus", "CODEGEM": "11002", "NAAMGEM": "Antwerpen", "OBJECTID": 6, "districtcode": 6, "districtnaam": "DEURNE", "afkorting": "DE", "SHAPE_Length": 22536.537533671883, "SHAPE_Area": 13028861.702838693 }, "geometry": { "type": "MultiPoint", "coordinates": [ [ 157946.0, 210571.0 ] ] } },
{ "type": "Feature", "properties": { "UIDN": 246773.0, "OIDN": 334.0, "STOPID": 101810.0, "NAAMHALTE": "Deurne Cruyslei", "TYPEHALTE": 3, "LBLTYPEHAL": "Belbus", "CODEGEM": "11002", "NAAMGEM": "Antwerpen", "OBJECTID": 6, "districtcode": 6, "districtnaam": "DEURNE", "afkorting": "DE", "SHAPE_Length": 22536.537533671883, "SHAPE_Area": 13028861.702838693 }, "geometry": { "type": "MultiPoint", "coordinates": [ [ 156251.0, 209885.0 ] ] } },
{ "type": "Feature", "properties": { "UIDN": 246774.0, "OIDN": 339.0, "STOPID": 101815.0, "NAAMHALTE": "Deurne Cruyslei", "TYPEHALTE": 3, "LBLTYPEHAL": "Belbus", "CODEGEM": "11002", "NAAMGEM": "Antwerpen", "OBJECTID": 6, "districtcode": 6, "districtnaam": "DEURNE", "afkorting": "DE", "SHAPE_Length": 22536.537533671883, "SHAPE_Area": 13028861.702838693 }, "geometry": { "type": "MultiPoint", "coordinates": [ [ 156255.0, 209875.0 ] ] } },
{ "type": "Feature", "properties": { "UIDN": 246775.0, "OIDN": 48947.0, "STOPID": 102708.0, "NAAMHALTE": "Borsbeek Silsburg", "TYPEHALTE": 3, "LBLTYPEHAL": "Belbus", "CODEGEM": "11002", "NAAMGEM": "Antwerpen", "OBJECTID": 6, "districtcode": 6, "districtnaam": "DEURNE", "afkorting": "DE", "SHAPE_Length": 22536.537533671883, "SHAPE_Area": 13028861.702838693 }, "geometry": { "type": "MultiPoint", "coordinates": [ [ 157955.0, 210440.0 ] ] } },
{ "type": "Feature", "properties": { "UIDN": 246778.0, "OIDN": 8484.0, "STOPID": 103535.0, "NAAMHALTE": "Deurne Dassastraat (tijdelijk niet bediend)", "TYPEHALTE": 3, "LBLTYPEHAL": "Belbus", "CODEGEM": "11002", "NAAMGEM": "Antwerpen", "OBJECTID": 6, "districtcode": 6, "districtnaam": "DEURNE", "afkorting": "DE", "SHAPE_Length": 22536.537533671883, "SHAPE_Area": 13028861.702838693 }, "geometry": { "type": "MultiPoint", "coordinates": [ [ 157531.0, 210573.0 ] ] } },
{ "type": "Feature", "properties": { "UIDN": 246902.0, "OIDN": 60762.0, "STOPID": 101212.0, "NAAMHALTE": "Deurne Drakenhoflaan", "TYPEHALTE": 1, "LBLTYPEHAL": "Niet-belbus", "CODEGEM": "11002", "NAAMGEM": "Antwerpen", "OBJECTID": 6, "districtcode": 6, "districtnaam": "DEURNE", "afkorting": "DE", "SHAPE_Length": 22536.537533671883, "SHAPE_Area": 13028861.702838693 }, "geometry": { "type": "MultiPoint", "coordinates": [ [ 156326.0, 209689.0 ] ] } }
]
}
