{
"type": "FeatureCollection",
"name": "wzcs",
"crs": { "type": "name", "properties": { "name": "urn:ogc:def:crs:OGC:1.3:CRS84" } },
"features": [
{ "type": "Feature", "properties": { "OBJECTID": 6364, "BEHEERDER": "prive", "NAAM": "WOONZORGCENTRUM HUIS VANDECRUYS", "LABEL": "WZC Huis Vandecruys", "STRAATNAAM": "De Gilmanstraat", "HUISNUMMER": "32", "POSTCODE": "2100", "ID_COMPLEX": "ZORG00008", "TYPE": "woonzorgcentrum", "JURIDISCHE_VORM": "BVBA", "WIJK": "Deurne - Noord", "TOTALE_CAP": "72", "NUMMER": "", "ERKENNING": "1", "LINK": "https://hvdc.be/", "WIJKCODE": "DEU01", "BUURT": "R13-", "TELEFOON": "03 327 37 00", "EMAIL": "info@hvdc.org", "DISTRICT": "Deurne", "OBJECTID_2": 6, "districtcode": 6, "districtnaam": "DEURNE", "afkorting": "DE", "SHAPE_Length": 22536.537533671883, "SHAPE_Area": 13028861.702838693 }, "geometry": { "type": "MultiPoint", "coordinates": [ [ 4.453509737794901, 51.22628860113894 ] ] } },
{ "type": "Feature", "properties": { "OBJECTID": 6368, "BEHEERDER": "prive", "NAAM": "WOONZORGCENTRUM RUSTHUIS BOTERLAARHOF", "LABEL": "WZC Rusthuis Boterlaarhof", "STRAATNAAM": "Boterlaarbaan", "HUISNUMMER": "11", "POSTCODE": "2100", "ID_COMPLEX": "ZORG00017", "TYPE": "woonzorgcentrum", "JURIDISCHE_VORM": "BVBA", "WIJK": "Deurne - Zuidwest", "TOTALE_CAP": "104", "NUMMER": "", "ERKENNING": "1", "LINK": "https://www.boterlaarhof.be/", "WIJKCODE": "DEU05", "BUURT": "R35-", "TELEFOON": "03 380 12 12", "EMAIL": "vragen@dezorgfamilie.be", "DISTRICT": "Deurne", "OBJECTID_2": 6, "districtcode": 6, "districtnaam": "DEURNE", "afkorting": "DE", "SHAPE_Length": 22536.537533671883, "SHAPE_Area": 13028861.702838693 }, "geometry": { "type": "MultiPoint", "coordinates": [ [ 4.460417187536531, 51.209987532608743 ] ] } },
{ "type": "Feature", "properties": { "OBJECTID": 6378, "BEHEERDER": "prive", "NAAM": "WOONZORGCENTRUM KOALA", "LABEL": "WZC Koala", "STRAATNAAM": "Bisschoppenhoflaan", "HUISNUMMER": "309", "POSTCODE": "2100", "ID_COMPLEX": "ZORG00054", "TYPE": "woonzorgcentrum", "JURIDISCHE_VORM": null, "WIJK": "Deurne - Kruininge & Bremweide", "TOTALE_CAP": "116", "NUMMER": "", "ERKENNING": "1", "LINK": "https://www.orpea.be/nl/locaties/woonzorgcentrum/koala", "WIJKCODE": "DEU02", "BUURT": "R19-", "TELEFOON": "03 611 03 00", "EMAIL": "koala@orpea.net", "DISTRICT": "Deurne", "OBJECTID_2": 6, "districtcode": 6, "districtnaam": "DEURNE", "afkorting": "DE", "SHAPE_Length": 22536.537533671883, "SHAPE_Area": 13028861.702838693 }, "geometry": { "type": "MultiPoint", "coordinates": [ [ 4.461502355101306, 51.233572170435473 ] ] } },
{ "type": "Feature", "properties": { "OBJECTID": 6381, "BEHEERDER": "prive", "NAAM": "WOONZORGCENTRUM 'T BISSCHOPPENHOFJE", "LABEL": "WZC 't Bisschoppenhofje", "STRAATNAAM": "Bisschoppenhoflaan", "HUISNUMMER": "395", "POSTCODE": "2100", "ID_COMPLEX": "ZORG00063", "TYPE": "woonzorgcentrum", "JURIDISCHE_VORM": "NV", "WIJK": "Deurne - Kruininge & Bremweide", "TOTALE_CAP": "51", "NUMMER": "", "ERKENNING": "1", "LINK": "https://www.orpea.be/nl/locaties/woonzorgcentrum/t-bisschoppenhofje", "WIJKCODE": "DEU02", "BUURT": "R19-", "TELEFOON": "03 303 61 00", "EMAIL": "tbisschoppenhofje@orpea.net", "DISTRICT": "Deurne", "OBJECTID_2": 6, "districtcode": 6, "districtnaam": "DEURNE", "afkorting": "DE", "SHAPE_Length": 22536.537533671883, "SHAPE_Area": 13028861.702838693 }, "geometry": { "type": "MultiPoint", "coordinates": [ [ 4.466345361991412, 51.234341907982504 ] ] } },
{ "type": "Feature", "properties": { "OBJECTID": 6387, "BEHEERDER": "Zorgbedrijf Antwerpen", "NAAM": "WOONZORGCENTRUM EUROPASQUARE", "LABEL": "WZC Europasquare", "STRAATNAAM": "Ruggeveldlaan", "HUISNUMMER": "26", "POSTCODE": "2100", "ID_COMPLEX": "ZORG00163_a", "TYPE": "woonzorgcentrum", "JURIDISCHE_VORM": null, "WIJK": "Deurne - Zuidoost", "TOTALE_CAP": "114", "NUMMER": "", "ERKENNING": "1", "LINK": "https://www.zorgbedrijf.antwerpen.be/woonzorgcentra/woonzorgcentrum-europasquare", "WIJKCODE": "DEU06", "BUURT": "R44-", "TELEFOON": "03 431 34 11", "EMAIL": "wzc.europasquare@zorgbedrijf.antwerpen.be", "DISTRICT": "Deurne", "OBJECTID_2": 6, "districtcode": 6, "districtnaam": "DEURNE", "afkorting": "DE", "SHAPE_Length": 22536.537533671883, "SHAPE_Area": 13028861.702838693 }, "geometry": { "type": "MultiPoint", "coordinates": [ [ 4.474625195910885, 51.209715866224087 ] ] } },
{ "type": "Feature", "properties": { "OBJECTID": 6395, "BEHEERDER": "prive", "NAAM": "WOONZORGCENTRUM RESIDENTIE RUGGEVELD", "LABEL": "WZC Residentie Ruggeveld", "STRAATNAAM": "Ruggeveldlaan", "HUISNUMMER": "55", "POSTCODE": "2100", "ID_COMPLEX": "ZORG00402", "TYPE": "woonzorgcentrum", "JURIDISCHE_VORM": null, "WIJK": "Deurne - Zuidwest", "TOTALE_CAP": "103", "NUMMER": "", "ERKENNING": "1", "LINK": "https://www.ruggeveld.com/", "WIJKCODE": "DEU05", "BUURT": "R31-", "TELEFOON": "03 369 36 00", "EMAIL": "vragen@dezorgfamilie.be", "DISTRICT": "Deurne", "OBJECTID_2": 6, "districtcode": 6, "districtnaam": "DEURNE", "afkorting": "DE", "SHAPE_Length": 22536.537533671883, "SHAPE_Area": 13028861.702838693 }, "geometry": { "type": "MultiPoint", "coordinates": [ [ 4.476262068636913, 51.210704201695108 ] ] } },
{ "type": "Feature", "properties": { "OBJECTID": 6402, "BEHEERDER": "Zorgbedrijf Antwerpen", "NAAM": "WOONZORGCENTRUM DE PELIKAAN", "LABEL": "WZC De Pelikaan", "STRAATNAAM": "Bosuilplein", "HUISNUMMER": "1", "POSTCODE": "2100", "ID_COMPLEX": "ZORG02883", "TYPE": "woonzorgcentrum", "JURIDISCHE_VORM": null, "WIJK": "Deurne - Noord", "TOTALE_CAP": "176", "NUMMER": "", "ERKENNING": "1", "LINK": "https://www.zorgbedrijf.antwerpen.be/woonzorgcentra/woonzorgcentrum-de-pelikaan", "WIJKCODE": "DEU01", "BUURT": "R110", "TELEFOON": "03 431 70 11", "EMAIL": "wzc.depelikaan@zorgbedrijf.antwerpen.be", "DISTRICT": "Deurne", "OBJECTID_2": 6, "districtcode": 6, "districtnaam": "DEURNE", "afkorting": "DE", "SHAPE_Length": 22536.537533671883, "SHAPE_Area": 13028861.702838693 }, "geometry": { "type": "MultiPoint", "coordinates": [ [ 4.465720194475458, 51.229682521281575 ] ] } },
{ "type": "Feature", "properties": { "OBJECTID": 6413, "BEHEERDER": "Zorgbedrijf Antwerpen", "NAAM": "WOONZORGCENTRUM EKSTERLAER", "LABEL": "WZC Eksterlaer", "STRAATNAAM": "Vuurwerkstraat", "HUISNUMMER": "80", "POSTCODE": "2100", "ID_COMPLEX": "ZORG02976", "TYPE": "woonzorgcentrum", "JURIDISCHE_VORM": null, "WIJK": "Deurne - Zuidoost", "TOTALE_CAP": "126", "NUMMER": " ", "ERKENNING": "1", "LINK": "https://www.zorgbedrijf.antwerpen.be/woonzorgcentra/eksterlaer", "WIJKCODE": "DEU06", "BUURT": "R43-", "TELEFOON": "03 431 31 31", "EMAIL": "wzc.eksterlaer@zorgbedrijf.antwerpen.be", "DISTRICT": "Deurne", "OBJECTID_2": 6, "districtcode": 6, "districtnaam": "DEURNE", "afkorting": "DE", "SHAPE_Length": 22536.537533671883, "SHAPE_Area": 13028861.702838693 }, "geometry": { "type": "MultiPoint", "coordinates": [ [ 4.472073602323515, 51.204260931192707 ] ] } }
]
}
